[{"OBJECT_NAME":"IRIDIUM 122","OBJECT_ID":"2017-061C","EPOCH":"2026-03-09T22:07:58.507680","MEAN_MOTION":14.34217131,"ECCENTRICITY":0.00019893,"INCLINATION":86.3911,"RA_OF_ASC_NODE":66.6833,"ARG_OF_PERICENTER":88.1776,"MEAN_ANOMALY":271.9648,"EPHEMERIS_TYPE":0,"CLASSIFICATION_TYPE":"U","NORAD_CAT_ID":42957,"ELEMENT_SET_NO":999,"REV_AT_EPOCH":44055,"BSTAR":-1.2173426e-5,"MEAN_MOTION_DOT":-1.4e-7,"MEAN_MOTION_DDOT":0},{"OBJECT_NAME":"NOAA 16 DEB","OBJECT_ID":"2000-055AY","EPOCH":"2026-03-08T15:55:43.072608","MEAN_MOTION":14.3352074,"ECCENTRICITY":0.00069934,"INCLINATION":98.6873,"RA_OF_ASC_NODE":150.1313,"ARG_OF_PERICENTER":95.4672,"MEAN_ANOMALY":264.731,"EPHEMERIS_TYPE":0,"CLASSIFICATION_TYPE":"U","NORAD_CAT_ID":41089,"ELEMENT_SET_NO":999,"REV_AT_EPOCH":53121,"BSTAR":0.0026481185,"MEAN_MOTION_DOT":7.287e-5,"MEAN_MOTION_DDOT":0}]
